QZS-1R                  
1 49336U 21096A   24096.31843421 -.00000197  00000+0  00000+0 0  9996
2 49336  35.7942  91.6301 0751489 270.0415  81.6724  1.00283820  8965
